[{"OBJECT_NAME":"STARLINK-33997","OBJECT_ID":"2025-098C","EPOCH":"2026-03-09T22:20:46.078368","MEAN_MOTION":14.96551413,"ECCENTRICITY":0.00068477,"INCLINATION":70.0004,"RA_OF_ASC_NODE":274.0384,"ARG_OF_PERICENTER":77.5305,"MEAN_ANOMALY":282.6619,"EPHEMERIS_TYPE":0,"CLASSIFICATION_TYPE":"U","NORAD_CAT_ID":63928,"ELEMENT_SET_NO":999,"REV_AT_EPOCH":4660,"BSTAR":-0.062237161,"MEAN_MOTION_DOT":-0.00663337,"MEAN_MOTION_DDOT":0},{"OBJECT_NAME":"FENGYUN 1C DEB","OBJECT_ID":"1999-025BHT","EPOCH":"2026-03-09T10:34:05.081376","MEAN_MOTION":14.72608783,"ECCENTRICITY":0.00664567,"INCLINATION":98.8695,"RA_OF_ASC_NODE":141.103,"ARG_OF_PERICENTER":325.1477,"MEAN_ANOMALY":97.9945,"EPHEMERIS_TYPE":0,"CLASSIFICATION_TYPE":"U","NORAD_CAT_ID":31165,"ELEMENT_SET_NO":999,"REV_AT_EPOCH":20,"BSTAR":0.0011586543,"MEAN_MOTION_DOT":7.58e-5,"MEAN_MOTION_DDOT":0}]
